STARLINK-37733          
1 69329U 26122A   26183.66668980 -.00029765  00000+0 -92260-3 0  9993
2 69329  97.2848 213.3542 0001265  92.1054 145.1215 15.33467953  5835
STARLINK-37772          
1 69330U 26122B   26183.66668980 -.00022130  00000+0 -68520-3 0  9996
2 69330  97.2837 213.3630 0001193 101.4011 150.8518 15.33443269  5787
STARLINK-37768          
1 69331U 26122C   26183.66668980 -.01690027  00000+0 -45591-1 0  9995
2 69331  97.2853 213.3599 0001916  76.8164 165.1818 15.41264545  5786
STARLINK-37833          
1 69332U 26122D   26183.66668980 -.00024234  00000+0 -75036-3 0  9995
2 69332  97.2850 213.3742 0001083  87.0228 195.1940 15.33460463  5781
STARLINK-37818          
1 69333U 26122E   26183.66668980 -.00016538  00000+0 -45608-3 0  9996
2 69333  97.2847 213.3708 0000911 132.8551 140.5520 15.37018371  5832
STARLINK-37868          
1 69334U 26122F   26183.66668980 -.00031481  00000+0 -97634-3 0  9997
2 69334  97.2843 213.3868 0002017 100.1059 212.1042 15.33460042  5833
STARLINK-37877          
1 69335U 26122G   26183.04033616 -.00948138  00000+0 -20021-1 0  9992
2 69335  97.2828 212.7271 0006546 143.5484 216.6213 15.47641706  4462
STARLINK-37791          
1 69336U 26122H   26183.66668980 -.00943357  00000+0 -31359-1 0  9993
2 69336  97.2847 213.4006 0001523 118.6851 223.3128 15.34029072  5833
STARLINK-37765          
1 69337U 26122J   26183.53669227  .00029321  00000+0  90681-3 0  9994
2 69337  97.2830 213.2774 0000676 223.7340 136.3849 15.33452641  4546
STARLINK-37788          
1 69338U 26122K   26183.04200813  .00033856  00000+0  62097-3 0  9991
2 69338  97.2831 212.7264 0000489 358.8265   1.2985 15.49214050  4463
STARLINK-37743          
1 69339U 26122L   26183.73313635 -.01021300  00000+0 -29904-1 0  9997
2 69339  97.2847 213.4681 0002041  74.6189 285.5282 15.38197467  4575
STARLINK-37780          
1 69340U 26122M   26183.66668980 -.01765096  00000+0 -53093-1 0  9990
2 69340  97.2839 213.4209 0001787  49.7933 345.5225 15.37558093  5884
STARLINK-37781          
1 69341U 26122N   26183.04318259  .00056736  00000+0  10375-2 0  9992
2 69341  97.2851 212.7242 0000395  62.2163 297.9128 15.49185248  4463
STARLINK-37782          
1 69342U 26122P   26183.66668980 -.00028282  00000+0 -87683-3 0  9994
2 69342  97.2844 213.4415 0001503  92.4073 339.8350 15.33450484  5838
STARLINK-37776          
1 69343U 26122Q   26183.66668980 -.00036937  00000+0 -11469-2 0  9999
2 69343  97.2845 213.4443 0001175  75.8993  11.3373 15.33457148  5833
STARLINK-37786          
1 69344U 26122R   26182.35962281  .00101101  00000+0  18402-2 0  9994
2 69344  97.2837 212.1255 0004585 131.1264 229.0384 15.49127849  4363
STARLINK-37785          
1 69345U 26122S   26183.66668980 -.00037588  00000+0 -11668-2 0  9995
2 69345  97.2844 213.4584 0001485  63.5602  53.6466 15.33468939  5837
STARLINK-37773          
1 69346U 26122T   26183.66668980 -.00024903  00000+0 -68956-3 0  9996
2 69346  97.2848 213.4549 0001715  89.2489  20.5062 15.36975384  5887
STARLINK-37744          
1 69347U 26122U   26183.36207809  .00050523  00000+0  92454-3 0  9998
2 69347  97.2849 213.0562 0000635  93.2949 266.8375 15.49193510  4514
STARLINK-37775          
1 69348U 26122V   26183.66668980 -.00024058  00000+0 -66601-3 0  9994
2 69348  97.2841 213.4520 0001644  85.0451  22.1212 15.36975334  5830
STARLINK-37777          
1 69349U 26122W   26183.66668980 -.02115988  00000+0 -58799-1 0  9997
2 69349  97.2842 213.4732 0001890  97.2615  44.1794 15.40607728  5830
STARLINK-37779          
1 69350U 26122X   26182.97577480  .00102606  00000+0  18346-2 0  9990
2 69350  97.2856 212.8149 0001020 163.0436 197.0850 15.49639968  4469
STARLINK-37549          
1 69351U 26122Y   26183.53305279  .00048756  00000+0  89205-3 0  9997
2 69351  97.2818 213.2824 0001504  80.0949 280.0472 15.49205954  4543
STARLINK-37778          
1 69352U 26122Z   26183.52509561  .00043047  00000+0  78822-3 0  9998
2 69352  97.2819 213.2930 0000414 121.8515 238.2777 15.49211857  4547
STARLINK-37651          
1 69353U 26123A   26181.51140785  .00250807  00000+0  12304-2 0  9992
2 69353  53.1561 175.0288 0002940 168.1568 191.9524 15.80998863  4147
STARLINK-37652          
1 69354U 26123B   26183.21949134  .00402745  00000+0  19487-2 0  9996
2 69354  53.1572 166.4840 0001500  48.9939 311.1213 15.80891186  4417
STARLINK-37593          
1 69355U 26123C   26183.66115361  .00170466  00000+0  84811-3 0  9999
2 69355  53.1572 164.2578 0000863  81.3972 278.7149 15.80928002  4482
STARLINK-37597          
1 69356U 26123D   26182.23245013  .00190946  00000+0  12181-2 0  9995
2 69356  53.1602 171.7155 0001131 101.5172 258.5975 15.75310661  4255
STARLINK-37598          
1 69357U 26123E   26181.19186955  .00441950  00000+0  20996-2 0  9996
2 69357  53.1563 176.5897 0003966 205.9333 154.1492 15.81184312  4090
STARLINK-37602          
1 69358U 26123F   26183.65518024  .00154515  00000+0  99143-3 0  9995
2 69358  53.1587 164.9587 0001096  87.1472 272.9674 15.75294493  4478
