OBJECT_NAME,OBJECT_ID,EPOCH,MEAN_MOTION,ECCENTRICITY,INCLINATION,RA_OF_ASC_NODE,ARG_OF_PERICENTER,MEAN_ANOMALY,EPHEMERIS_TYPE,CLASSIFICATION_TYPE,NORAD_CAT_ID,ELEMENT_SET_NO,REV_AT_EPOCH,BSTAR,MEAN_MOTION_DOT,MEAN_MOTION_DDOT
STARLINK-37733,2026-122A,2026-07-02T16:00:01.998720,15.33467953,.0001265,97.2848,213.3542,92.1054,145.1215,0,U,69329,999,583,-.9226E-3,-.29765E-3,0
STARLINK-37772,2026-122B,2026-07-02T16:00:01.998720,15.33443269,.0001193,97.2837,213.3630,101.4011,150.8518,0,U,69330,999,578,-.6852E-3,-.2213E-3,0
STARLINK-37768,2026-122C,2026-07-02T16:00:01.998720,15.41264545,.0001916,97.2853,213.3599,76.8164,165.1818,0,U,69331,999,578,-.45591E-1,-.1690027E-1,0
STARLINK-37833,2026-122D,2026-07-02T16:00:01.998720,15.33460463,.0001083,97.2850,213.3742,87.0228,195.1940,0,U,69332,999,578,-.75036E-3,-.24234E-3,0
STARLINK-37818,2026-122E,2026-07-02T16:00:01.998720,15.37018371,.0000911,97.2847,213.3708,132.8551,140.5520,0,U,69333,999,583,-.45608E-3,-.16538E-3,0
STARLINK-37868,2026-122F,2026-07-02T16:00:01.998720,15.33460042,.0002017,97.2843,213.3868,100.1059,212.1042,0,U,69334,999,583,-.97634E-3,-.31481E-3,0
STARLINK-37877,2026-122G,2026-07-02T00:58:05.044224,15.47641706,.0006546,97.2828,212.7271,143.5484,216.6213,0,U,69335,999,446,-.20021E-1,-.948138E-2,0
STARLINK-37791,2026-122H,2026-07-02T16:00:01.998720,15.34029072,.0001523,97.2847,213.4006,118.6851,223.3128,0,U,69336,999,583,-.31359E-1,-.943357E-2,0
STARLINK-37765,2026-122J,2026-07-02T12:52:50.212128,15.33452641,.0000676,97.2830,213.2774,223.7340,136.3849,0,U,69337,999,454,.90681E-3,.29321E-3,0
STARLINK-37788,2026-122K,2026-07-02T01:00:29.502432,15.49214050,.00004897,97.2831,212.7264,358.8265,1.2985,0,U,69338,999,446,.6209658E-3,.33856E-3,0
STARLINK-37743,2026-122L,2026-07-02T17:35:42.980640,15.38197467,.0002041,97.2847,213.4681,74.6189,285.5282,0,U,69339,999,457,-.29904E-1,-.10213E-1,0
STARLINK-37780,2026-122M,2026-07-02T16:00:01.998720,15.37558093,.0001787,97.2839,213.4209,49.7933,345.5225,0,U,69340,999,588,-.53093E-1,-.1765096E-1,0
STARLINK-37781,2026-122N,2026-07-02T01:02:10.975776,15.49185248,.00003956,97.2851,212.7242,62.2163,297.9128,0,U,69341,999,446,.10374969E-2,.56736E-3,0
STARLINK-37782,2026-122P,2026-07-02T16:00:01.998720,15.33450484,.0001503,97.2844,213.4415,92.4073,339.8350,0,U,69342,999,583,-.87683E-3,-.28282E-3,0
STARLINK-37776,2026-122Q,2026-07-02T16:00:01.998720,15.33457148,.0001175,97.2845,213.4443,75.8993,11.3373,0,U,69343,999,583,-.11469E-2,-.36937E-3,0
STARLINK-37786,2026-122R,2026-07-01T08:37:51.410784,15.49127849,.00045859,97.2837,212.1255,131.1264,229.0384,0,U,69344,999,436,.18402008E-2,.101101E-2,0
STARLINK-37785,2026-122S,2026-07-02T16:00:01.998720,15.33468939,.0001485,97.2844,213.4584,63.5602,53.6466,0,U,69345,999,583,-.11668E-2,-.37588E-3,0
STARLINK-37773,2026-122T,2026-07-02T16:00:01.998720,15.36975384,.0001715,97.2848,213.4549,89.2489,20.5062,0,U,69346,999,588,-.68956E-3,-.24903E-3,0
STARLINK-37744,2026-122U,2026-07-02T08:41:23.546976,15.49193510,.0000635,97.2849,213.0562,93.2949,266.8375,0,U,69347,999,451,.92454E-3,.50523E-3,0
STARLINK-37775,2026-122V,2026-07-02T16:00:01.998720,15.36975334,.0001644,97.2841,213.4520,85.0451,22.1212,0,U,69348,999,583,-.66601E-3,-.24058E-3,0
STARLINK-37777,2026-122W,2026-07-02T16:00:01.998720,15.40607728,.000189,97.2842,213.4732,97.2615,44.1794,0,U,69349,999,583,-.58799E-1,-.2115988E-1,0
STARLINK-37779,2026-122X,2026-07-01T23:25:06.942720,15.49639968,.00010206,97.2856,212.8149,163.0436,197.0850,0,U,69350,999,446,.1834625E-2,.102606E-2,0
STARLINK-37549,2026-122Y,2026-07-02T12:47:35.761056,15.49205954,.0001504,97.2818,213.2824,80.0949,280.0472,0,U,69351,999,454,.89205E-3,.48756E-3,0
STARLINK-37778,2026-122Z,2026-07-02T12:36:08.260704,15.49211857,.0000414,97.2819,213.2930,121.8515,238.2777,0,U,69352,999,454,.78822E-3,.43047E-3,0
STARLINK-37651,2026-123A,2026-06-30T12:16:25.638240,15.80998863,.000294,53.1561,175.0288,168.1568,191.9524,0,U,69353,999,414,.12304E-2,.250807E-2,0
STARLINK-37652,2026-123B,2026-07-02T05:16:04.051776,15.80891186,.00015008,53.1572,166.4840,48.9939,311.1213,0,U,69354,999,441,.19487427E-2,.402745E-2,0
STARLINK-37593,2026-123C,2026-07-02T15:52:03.671904,15.80928002,.0000863,53.1572,164.2578,81.3972,278.7149,0,U,69355,999,448,.84811E-3,.170466E-2,0
STARLINK-37597,2026-123D,2026-07-01T05:34:43.691232,15.75310661,.00011314,53.1602,171.7155,101.5172,258.5975,0,U,69356,999,425,.12180699E-2,.190946E-2,0
STARLINK-37598,2026-123E,2026-06-30T04:36:17.529120,15.81184312,.00039663,53.1563,176.5897,205.9333,154.1492,0,U,69357,999,409,.20996348E-2,.44195E-2,0
STARLINK-37602,2026-123F,2026-07-02T15:43:27.572736,15.75294493,.0001096,53.1587,164.9587,87.1472,272.9674,0,U,69358,999,447,.99143E-3,.154515E-2,0
